[{"OBJECT_NAME":"STARLINK-5988","OBJECT_ID":"2023-058D","EPOCH":"2026-03-09T22:39:15.603840","MEAN_MOTION":15.01262386,"ECCENTRICITY":0.0002859,"INCLINATION":97.6044,"RA_OF_ASC_NODE":70.3858,"ARG_OF_PERICENTER":67.357,"MEAN_ANOMALY":292.7956,"EPHEMERIS_TYPE":0,"CLASSIFICATION_TYPE":"U","NORAD_CAT_ID":56320,"ELEMENT_SET_NO":999,"REV_AT_EPOCH":15782,"BSTAR":5.4072305e-5,"MEAN_MOTION_DOT":6.36e-6,"MEAN_MOTION_DDOT":0},{"OBJECT_NAME":"COSMOS 2251 DEB","OBJECT_ID":"1993-036BTL","EPOCH":"2026-03-05T23:04:31.790784","MEAN_MOTION":14.99909335,"ECCENTRICITY":0.00032115,"INCLINATION":74.0103,"RA_OF_ASC_NODE":259.8781,"ARG_OF_PERICENTER":226.5417,"MEAN_ANOMALY":133.5503,"EPHEMERIS_TYPE":0,"CLASSIFICATION_TYPE":"U","NORAD_CAT_ID":38220,"ELEMENT_SET_NO":999,"REV_AT_EPOCH":72615,"BSTAR":0.0034301399,"MEAN_MOTION_DOT":0.00042797,"MEAN_MOTION_DDOT":0}]
